[{"OBJECT_NAME":"NEXSAT-1","OBJECT_ID":"2024-024E","EPOCH":"2026-03-09T22:47:24.778176","MEAN_MOTION":15.32166372,"ECCENTRICITY":0.00099795,"INCLINATION":97.3124,"RA_OF_ASC_NODE":144.1918,"ARG_OF_PERICENTER":108.5709,"MEAN_ANOMALY":251.6617,"EPHEMERIS_TYPE":0,"CLASSIFICATION_TYPE":"U","NORAD_CAT_ID":58921,"ELEMENT_SET_NO":999,"REV_AT_EPOCH":11669,"BSTAR":0.00031433612,"MEAN_MOTION_DOT":9.702e-5,"MEAN_MOTION_DDOT":0},{"OBJECT_NAME":"STARLINK-33690","OBJECT_ID":"2025-065H","EPOCH":"2026-03-09T09:56:58.059168","MEAN_MOTION":15.27613266,"ECCENTRICITY":0.00042388,"INCLINATION":43.0027,"RA_OF_ASC_NODE":104.679,"ARG_OF_PERICENTER":255.1959,"MEAN_ANOMALY":104.8424,"EPHEMERIS_TYPE":0,"CLASSIFICATION_TYPE":"U","NORAD_CAT_ID":63406,"ELEMENT_SET_NO":999,"REV_AT_EPOCH":5284,"BSTAR":0.0012608006,"MEAN_MOTION_DOT":0.00034637,"MEAN_MOTION_DDOT":0}]
